[{"OBJECT_NAME":"GAOFEN-14 01","OBJECT_ID":"2020-092A","EPOCH":"2026-03-09T23:18:15.156000","MEAN_MOTION":15.25725011,"ECCENTRICITY":0.0008015,"INCLINATION":97.4817,"RA_OF_ASC_NODE":139.2507,"ARG_OF_PERICENTER":138.8844,"MEAN_ANOMALY":221.2999,"EPHEMERIS_TYPE":0,"CLASSIFICATION_TYPE":"U","NORAD_CAT_ID":47231,"ELEMENT_SET_NO":999,"REV_AT_EPOCH":29270,"BSTAR":0.00022250672,"MEAN_MOTION_DOT":5.605e-5,"MEAN_MOTION_DDOT":0},{"OBJECT_NAME":"STARLINK-31584","OBJECT_ID":"2024-098E","EPOCH":"2026-03-09T00:11:51.537696","MEAN_MOTION":15.27580285,"ECCENTRICITY":8.188e-5,"INCLINATION":42.9997,"RA_OF_ASC_NODE":281.7009,"ARG_OF_PERICENTER":257.1294,"MEAN_ANOMALY":102.9466,"EPHEMERIS_TYPE":0,"CLASSIFICATION_TYPE":"U","NORAD_CAT_ID":59862,"ELEMENT_SET_NO":999,"REV_AT_EPOCH":10174,"BSTAR":-2.0107732e-5,"MEAN_MOTION_DOT":-8.15e-6,"MEAN_MOTION_DDOT":0}]
